start=new Date('2022-01-19T00:00:00.000Z').valueOf();
sats=[{"SEMIMAJOR_AXIS":"6925.379","COUNTRY_CODE":"US","MEAN_ELEMENT_THEORY":"SGP4","SITE":"AFETR","GP_ID":"194155123","TLE_LINE2":"2 48406  53.0551 283.6339 0001749  59.0354 301.0807 15.06390037 39605","PERIAPSIS":"546.033","BSTAR":"0.00050027000000","ELEMENT_SET_NO":"999","OBJECT_ID":"2021-038BF","ECCENTRICITY":"0.00017490","LAUNCH_DATE":"2021-05-04","RA_OF_ASC_NODE":"283.6339","CLASSIFICATION_TYPE":"U","NORAD_CAT_ID":"48406","FILE":"3276875","EPOCH":"2022-01-18T22:33:58.231584","REV_AT_EPOCH":"3960","MEAN_MOTION_DOT":"0.00007176","INCLINATION":"53.0551","APOAPSIS":"548.455","ARG_OF_PERICENTER":"59.0354","PERIOD":"95.593","OBJECT_TYPE":"PAYLOAD","OBJECT_NAME":"STARLINK-2568","EPHEMERIS_TYPE":"0","MEAN_MOTION":"15.06390037","DECAY_DATE":null,"MEAN_ANOMALY":"301.0807","REF_FRAME":"TEME","MEAN_MOTION_DDOT":"0.0000000000000","CENTER_NAME":"EARTH","TIME_SYSTEM":"UTC","RCS_SIZE":"LARGE","TLE_LINE1":"1 48406U 21038BF  22018.94025731  .00007176  00000-0  50027-3 0  9998"},{"TLE_LINE1":"1 48407U 21038BG  22018.87022303 -.00000617  00000-0 -22554-4 0  9993","RCS_SIZE":"LARGE","REF_FRAME":"TEME","MEAN_MOTION_DDOT":"0.0000000000000","TIME_SYSTEM":"UTC","CENTER_NAME":"EARTH","DECAY_DATE":null,"MEAN_ANOMALY":"296.1560","OBJECT_NAME":"STARLINK-2595","MEAN_MOTION":"15.06387850","EPHEMERIS_TYPE":"0","OBJECT_TYPE":"PAYLOAD","APOAPSIS":"548.260","PERIOD":"95.593","ARG_OF_PERICENTER":"63.9579","MEAN_MOTION_DOT":"-0.00000617","INCLINATION":"53.0546","REV_AT_EPOCH":"3958","EPOCH":"2022-01-18T20:53:07.269792","FILE":"3276875","NORAD_CAT_ID":"48407","CLASSIFICATION_TYPE":"U","RA_OF_ASC_NODE":"283.9417","LAUNCH_DATE":"2021-05-04","ECCENTRICITY":"0.00014570","OBJECT_ID":"2021-038BG","ELEMENT_SET_NO":"999","BSTAR":"-0.00002255400000","TLE_LINE2":"2 48407  53.0546 283.9417 0001457  63.9579 296.1560 15.06387850 39585","PERIAPSIS":"546.242","MEAN_ELEMENT_THEORY":"SGP4","GP_ID":"194155858","SITE":"AFETR","COUNTRY_CODE":"US","SEMIMAJOR_AXIS":"6925.386"},{"REV_AT_EPOCH":"3959","EPOCH":"2022-01-18T22:23:21.715008","APOAPSIS":"548.700","PERIOD":"95.592","ARG_OF_PERICENTER":"69.6249","MEAN_MOTION_DOT":"-0.00005529","INCLINATION":"53.0558","OBJECT_NAME":"STARLINK-2592","EPHEMERIS_TYPE":"0","MEAN_MOTION":"15.06400962","OBJECT_TYPE":"PAYLOAD","DECAY_DATE":null,"MEAN_ANOMALY":"290.4970","RCS_SIZE":"LARGE","REF_FRAME":"TEME","MEAN_MOTION_DDOT":"0.0000000000000","CENTER_NAME":"EARTH","TIME_SYSTEM":"UTC","TLE_LINE1":"1 48408U 21038BH  22018.93289022 -.00005529  00000-0 -35253-3 0  9990","SEMIMAJOR_AXIS":"6925.346","MEAN_ELEMENT_THEORY":"SGP4","GP_ID":"194154628","SITE":"AFETR","COUNTRY_CODE":"US","BSTAR":"-0.00035253000000","TLE_LINE2":"2 48408  53.0558 283.6599 0002150  69.6249 290.4970 15.06400962 39598","PERIAPSIS":"545.722","OBJECT_ID":"2021-038BH","ELEMENT_SET_NO":"999","RA_OF_ASC_NODE":"283.6599","ECCENTRICITY":"0.00021500","LAUNCH_DATE":"2021-05-04","NORAD_CAT_ID":"48408","CLASSIFICATION_TYPE":"U","FILE":"3276875"},{"REV_AT_EPOCH":"3953","EPOCH":"2022-01-18T21:21:40.005504","ARG_OF_PERICENTER":"64.1597","PERIOD":"95.594","APOAPSIS":"548.398","INCLINATION":"53.0554","MEAN_MOTION_DOT":"0.00000815","MEAN_MOTION":"15.06374434","EPHEMERIS_TYPE":"0","OBJECT_NAME":"STARLINK-2596","OBJECT_TYPE":"PAYLOAD","DECAY_DATE":null,"MEAN_ANOMALY":"295.9557","RCS_SIZE":"LARGE","CENTER_NAME":"EARTH","MEAN_MOTION_DDOT":"0.0000000000000","TIME_SYSTEM":"UTC","REF_FRAME":"TEME","TLE_LINE1":"1 48409U 21038BJ  22018.89004636  .00000815  00000-0  73644-4 0  9990","SEMIMAJOR_AXIS":"6925.427","SITE":"AFETR","GP_ID":"194155380","MEAN_ELEMENT_THEORY":"SGP4","COUNTRY_CODE":"US","BSTAR":"0.00007364400000","PERIAPSIS":"546.186","TLE_LINE2":"2 48409  53.0554 288.8614 0001597  64.1597 295.9557 15.06374434 39539","OBJECT_ID":"2021-038BJ","ELEMENT_SET_NO":"999","RA_OF_ASC_NODE":"288.8614","LAUNCH_DATE":"2021-05-04","ECCENTRICITY":"0.00015970","NORAD_CAT_ID":"48409","CLASSIFICATION_TYPE":"U","FILE":"3276875"},{"RCS_SIZE":"LARGE","MEAN_MOTION_DDOT":"0.0000000000000","CENTER_NAME":"EARTH","TIME_SYSTEM":"UTC","REF_FRAME":"TEME","TLE_LINE1":"1 48410U 21038BK  22018.91667824 -.00005472  00000-0 -34879-3 0  9991","REV_AT_EPOCH":"359","EPOCH":"2022-01-18T22:00:00.999936","ARG_OF_PERICENTER":"72.2789","PERIOD":"95.593","APOAPSIS":"548.719","INCLINATION":"53.0545","MEAN_MOTION_DOT":"-0.00005472","MEAN_MOTION":"15.06391135","EPHEMERIS_TYPE":"0","OBJECT_NAME":"STARLINK-2563","OBJECT_TYPE":"PAYLOAD","DECAY_DATE":null,"MEAN_ANOMALY":"47.3776","RA_OF_ASC_NODE":"238.7428","LAUNCH_DATE":"2021-05-04","ECCENTRICITY":"0.00021340","NORAD_CAT_ID":"48410","CLASSIFICATION_TYPE":"U","FILE":"3276875","SEMIMAJOR_AXIS":"6925.376","GP_ID":"194155624","SITE":"AFETR","MEAN_ELEMENT_THEORY":"SGP4","COUNTRY_CODE":"US","BSTAR":"-0.00034879000000","PERIAPSIS":"545.763","TLE_LINE2":"2 48410  53.0545 238.7428 0002134  72.2789  47.3776 15.06391135  3595","OBJECT_ID":"2021-038BK","ELEMENT_SET_NO":"999"},{"NORAD_CAT_ID":"48411","CLASSIFICATION_TYPE":"U","FILE":"3276875","RA_OF_ASC_NODE":"233.7409","ECCENTRICITY":"0.00021300","LAUNCH_DATE":"2021-05-04","BSTAR":"0.00008641500000","TLE_LINE2":"2 48411  53.0533 233.7409 0002130  71.9565 315.1760 15.06377877  3597","PERIAPSIS":"545.806","OBJECT_ID":"2021-038BL","ELEMENT_SET_NO":"999","SEMIMAJOR_AXIS":"6925.416","MEAN_ELEMENT_THEORY":"SGP4","GP_ID":"194155358","SITE":"AFETR","COUNTRY_CODE":"US","TLE_LINE1":"1 48411U 21038BL  22018.91667824  .00001005  00000-0  86415-4 0  9992","RCS_SIZE":"LARGE","REF_FRAME":"TEME","TIME_SYSTEM":"UTC","MEAN_MOTION_DDOT":"0.0000000000000","CENTER_NAME":"EARTH","OBJECT_NAME":"STARLINK-2505","EPHEMERIS_TYPE":"0","MEAN_MOTION":"15.06377877","OBJECT_TYPE":"PAYLOAD","MEAN_ANOMALY":"315.1760","DECAY_DATE":null,"REV_AT_EPOCH":"359","EPOCH":"2022-01-18T22:00:00.999936","APOAPSIS":"548.756","ARG_OF_PERICENTER":"71.9565","PERIOD":"95.594","MEAN_MOTION_DOT":"0.00001005","INCLINATION":"53.0533"},{"TLE_LINE1":"1 48412U 21038BM  22018.91667824  .00000126  00000-0  27354-4 0  9993","RCS_SIZE":"LARGE","REF_FRAME":"TEME","CENTER_NAME":"EARTH","MEAN_MOTION_DDOT":"0.0000000000000","TIME_SYSTEM":"UTC","OBJECT_NAME":"STARLINK-2581","MEAN_MOTION":"15.06390267","EPHEMERIS_TYPE":"0","OBJECT_TYPE":"PAYLOAD","MEAN_ANOMALY":"83.3237","DECAY_DATE":null,"REV_AT_EPOCH":"359","EPOCH":"2022-01-18T22:00:00.999936","APOAPSIS":"548.865","ARG_OF_PERICENTER":"68.9606","PERIOD":"95.593","MEAN_MOTION_DOT":"0.00000126","INCLINATION":"53.0539","NORAD_CAT_ID":"48412","CLASSIFICATION_TYPE":"U","FILE":"3276875","RA_OF_ASC_NODE":"233.7409","ECCENTRICITY":"0.00023410","LAUNCH_DATE":"2021-05-04","BSTAR":"0.00002735400000","TLE_LINE2":"2 48412  53.0539 233.7409 0002341  68.9606  83.3237 15.06390267  3591","PERIAPSIS":"545.622","OBJECT_ID":"2021-038BM","ELEMENT_SET_NO":"999","SEMIMAJOR_AXIS":"6925.378","MEAN_ELEMENT_THEORY":"SGP4","GP_ID":"194154128","SITE":"AFETR","COUNTRY_CODE":"US"},{"FILE":"3276875","CLASSIFICATION_TYPE":"U","NORAD_CAT_ID":"48428","ECCENTRICITY":"0.00014300","LAUNCH_DATE":"2021-05-09","RA_OF_ASC_NODE":"129.2372","ELEMENT_SET_NO":"999","OBJECT_ID":"2021-040A","PERIAPSIS":"546.218","TLE_LINE2":"2 48428  53.0552 129.2372 0001430  75.6775 284.4373 15.06401816 38834","BSTAR":"-0.00005462900000","COUNTRY_CODE":"US","SITE":"AFETR","GP_ID":"194154630","MEAN_ELEMENT_THEORY":"SGP4","SEMIMAJOR_AXIS":"6925.343","TLE_LINE1":"1 48428U 21040A   22018.80524714 -.00001095  00000-0 -54629-4 0  9994","MEAN_MOTION_DDOT":"0.0000000000000","TIME_SYSTEM":"UTC","CENTER_NAME":"EARTH","REF_FRAME":"TEME","RCS_SIZE":"LARGE","MEAN_ANOMALY":"284.4373","DECAY_DATE":null,"OBJECT_TYPE":"PAYLOAD","MEAN_MOTION":"15.06401816","EPHEMERIS_TYPE":"0","OBJECT_NAME":"STARLINK-2461","INCLINATION":"53.0552","MEAN_MOTION_DOT":"-0.00001095","PERIOD":"95.592","ARG_OF_PERICENTER":"75.6775","APOAPSIS":"548.198","EPOCH":"2022-01-18T19:19:33.352896","REV_AT_EPOCH":"3883"},{"BSTAR":"-0.00111220000000","PERIAPSIS":"546.363","TLE_LINE2":"2 48429  53.0556  98.7397 0001256  75.2703 339.5326 15.06393725  3593","OBJECT_ID":"2021-040B","ELEMENT_SET_NO":"999","SEMIMAJOR_AXIS":"6925.368","SITE":"AFETR","GP_ID":"194155382","MEAN_ELEMENT_THEORY":"SGP4","COUNTRY_CODE":"US","NORAD_CAT_ID":"48429","CLASSIFICATION_TYPE":"U","FILE":"3276875","RA_OF_ASC_NODE":"98.7397","ECCENTRICITY":"0.00012560","LAUNCH_DATE":"2021-05-09","MEAN_MOTION":"15.06393725","EPHEMERIS_TYPE":"0","OBJECT_NAME":"STARLINK-2749","OBJECT_TYPE":"PAYLOAD","MEAN_ANOMALY":"339.5326","DECAY_DATE":null,"REV_AT_EPOCH":"359","EPOCH":"2022-01-18T22:00:00.999936","ARG_OF_PERICENTER":"75.2703","PERIOD":"95.593","APOAPSIS":"548.103","INCLINATION":"53.0556","MEAN_MOTION_DOT":"-0.00016806","TLE_LINE1":"1 48429U 21040B   22018.91667824 -.00016806  00000-0 -11122-2 0  9992","RCS_SIZE":"LARGE","MEAN_MOTION_DDOT":"0.0000000000000","CENTER_NAME":"EARTH","TIME_SYSTEM":"UTC","REF_FRAME":"TEME"},{"TLE_LINE1":"1 48430U 21040C   22018.91667824 -.00025334  00000-0 -16873-2 0  9998","MEAN_MOTION_DDOT":"0.0000000000000","TIME_SYSTEM":"UTC","CENTER_NAME":"EARTH","REF_FRAME":"TEME","RCS_SIZE":"LARGE","DECAY_DATE":null,"MEAN_ANOMALY":"145.1652","OBJECT_TYPE":"PAYLOAD","EPHEMERIS_TYPE":"0","MEAN_MOTION":"15.06414461","OBJECT_NAME":"STARLINK-2729","INCLINATION":"53.0552","MEAN_MOTION_DOT":"-0.00025334","PERIOD":"95.591","ARG_OF_PERICENTER":"89.6578","APOAPSIS":"548.040","EPOCH":"2022-01-18T22:00:00.999936","REV_AT_EPOCH":"358","FILE":"3276875","CLASSIFICATION_TYPE":"U","NORAD_CAT_ID":"48430","ECCENTRICITY":"0.00012580","LAUNCH_DATE":"2021-05-09","RA_OF_ASC_NODE":"98.7436","ELEMENT_SET_NO":"999","OBJECT_ID":"2021-040C","PERIAPSIS":"546.298","TLE_LINE2":"2 48430  53.0552  98.7436 0001258  89.6578 145.1652 15.06414461  3589","BSTAR":"-0.00168730000000","COUNTRY_CODE":"US","GP_ID":"194155626","SITE":"AFETR","MEAN_ELEMENT_THEORY":"SGP4","SEMIMAJOR_AXIS":"6925.304"}];
